[{"OBJECT_NAME":"QPS-SAR-8 (AMATERU-IV)","OBJECT_ID":"2024-149CC","EPOCH":"2026-03-09T16:54:01.213344","MEAN_MOTION":15.03026697,"ECCENTRICITY":0.0003873,"INCLINATION":97.6699,"RA_OF_ASC_NODE":148.7511,"ARG_OF_PERICENTER":93.15,"MEAN_ANOMALY":267.0168,"EPHEMERIS_TYPE":0,"CLASSIFICATION_TYPE":"U","NORAD_CAT_ID":60542,"ELEMENT_SET_NO":999,"REV_AT_EPOCH":8532,"BSTAR":0.00061811246,"MEAN_MOTION_DOT":8.268e-5,"MEAN_MOTION_DDOT":0},{"OBJECT_NAME":"FENGYUN 1C DEB","OBJECT_ID":"1999-025EHN","EPOCH":"2026-03-02T16:35:42.867168","MEAN_MOTION":14.48932739,"ECCENTRICITY":0.02433889,"INCLINATION":99.0734,"RA_OF_ASC_NODE":153.2496,"ARG_OF_PERICENTER":110.1255,"MEAN_ANOMALY":252.6301,"EPHEMERIS_TYPE":0,"CLASSIFICATION_TYPE":"U","NORAD_CAT_ID":37444,"ELEMENT_SET_NO":999,"REV_AT_EPOCH":66308,"BSTAR":0.00093157503,"MEAN_MOTION_DOT":5.091e-5,"MEAN_MOTION_DDOT":0}]
